{
  "norad_id": 45437,
  "name": "ONEWEB-0092",
  "history": [
    {
      "epoch": "2026-03-28T21:46:12.474048Z",
      "apogee_km": 1218.8587945768531,
      "perigee_km": 1216.4893572698302,
      "latitude_deg": -1.2639951560051739e-05,
      "longitude_deg": -115.85187913102256,
      "height_km": 1220.2230516092663,
      "semi_major_axis_km": 7595.811075923341,
      "eccentricity": 0.00015597,
      "inclination_deg": 87.8904,
      "raan_deg": 37.0209,
      "arg_perigee_deg": 73.4381,
      "mean_anomaly_deg": 286.6918,
      "mean_motion_rev_day": 13.11419178
    },
    {
      "epoch": "2026-03-29T03:15:48.570912Z",
      "apogee_km": 1218.8481706361918,
      "perigee_km": 1216.5025837741114,
      "latitude_deg": 2.0212659857215003e-05,
      "longitude_deg": 161.47651421731874,
      "height_km": 1220.236697487791,
      "semi_major_axis_km": 7595.812377205151,
      "eccentricity": 0.0001544,
      "inclination_deg": 87.8905,
      "raan_deg": 36.9753,
      "arg_perigee_deg": 73.8926,
      "mean_anomaly_deg": 286.2372,
      "mean_motion_rev_day": 13.11418841
    }
  ]
}